# From MPC102099
P/2016 P1 (PANSTARRS),e,24.4209,319.5366,270.4628,3.199240,0.1722399,0.28938046,93.4783,12/06.0/2022,2000,g 15.0,4.0
# From MPEC 2022-M21
C/2016 Q2 (PANSTARRS),h,05/12.3489/2021,109.3833,322.3080,84.5558,1.002807,7.081947,2000,6.0,4.0
# From MPC102955
C/2016 Q4 (Kowalski),e,7.2468,271.2958,99.6646,17.01817,0.0140390,0.58302255,24.8429,12/06.0/2022,2000,g  7.0,4.0
# From MPEC 2021-N06
C/2016 R2 (PANSTARRS),e,58.3224,80.5164,33.0953,476.4502,0.0000948,0.99454981,0.0000,05/09.1754/2018,2000,g  7.0,4.0
# From MPEC 2022-K19
P/2016 R4 (Gibbs),e,10.8776,168.2615,174.1263,5.332569,0.0800386,0.47623906,186.1577,12/06.0/2022,2000,g 12.5,4.0
# From MPC105543
P/2016 S1 (PANSTARRS),e,94.7282,227.6472,273.2577,8.276078,0.0413968,0.71032187,86.5348,12/06.0/2022,2000,g 12.0,4.0
# From MPC106345
P/2016 WM48 (Lemmon),e,117.5768,59.9323,36.1383,8.168940,0.0422139,0.78348636,89.1405,12/06.0/2022,2000,g 15.0,4.0
# From MPEC 2021-P47
C/2016 X1 (Lemmon),e,26.4581,256.3456,224.4771,1343,0.0000200,0.99437286,0.0000,04/27.8449/2019,2000,g  6.0,4.0
# From MPC114598
C/2017 AB5 (PANSTARRS),e,32.4650,42.5968,78.2817,2630,0.0000073,0.99650001,0.0000,02/14.5277/2018,2000,g  5.5,4.0
# From MPEC 2022-OB6
C/2017 B3 (LINEAR),h,02/01.5326/2019,54.1587,2.1750,284.8308,1.000349,3.929116,2000,6.0,4.0
# From MPC103847
P/2017 B4 (PANSTARRS),e,20.0584,121.4578,11.0197,4.410520,0.1064068,0.36495152,359.9130,01/05.0/2017,2000,g 14.5,4.0
# From MPEC 2022-OB6
P/2017 D1 (Fuls),e,20.7664,82.1885,7.9530,4.827939,0.0929098,0.43690617,218.9899,12/06.0/2022,2000,g 14.0,4.0
# From MPEC 2022-OB6
P/2017 D4 (PANSTARRS),e,10.5481,264.9436,212.1364,7.549063,0.0475187,0.62891837,108.4796,12/06.0/2022,2000,g 13.0,4.0
# From MPC111769
C/2017 F1 (Lemmon),h,11/27.8446/2017,146.4688,158.7864,64.7223,1.001338,4.500595,2000,10.5,4.0
# From MPC114598
C/2017 F2 (PANSTARRS),h,11/25.4911/2017,42.5595,38.7094,134.8759,1.001711,6.922783,2000,7.5,4.0
# From MPC104794
P/2017 G1 (PANSTARRS),e,4.7834,249.6725,224.3606,7.275837,0.0502203,0.65366893,121.2182,12/06.0/2022,2000,g 13.5,4.0
# From MPC108595
P/2017 G2 (PANSTARRS),e,47.9599,79.8384,105.4166,8.051738,0.0431390,0.64753657,86.5271,12/06.0/2022,2000,g 13.0,4.0
# From MPC115882
C/2017 K1 (PANSTARRS),h,03/17.8036/2018,154.0219,225.7336,4.4143,1.003395,7.282677,2000,7.0,4.0
# From MPEC 2022-V95
C/2017 K2 (PANSTARRS),h,12/19.6863/2022,87.5631,88.2354,236.1999,1.000815,1.796887,2000,1.5,4.0
# From MPEC 2021-N06
P/2017 K3 (Gasparovic),e,4.2733,354.2941,253.4240,5.584857,0.0746769,0.57915937,150.6835,12/06.0/2022,2000,g 14.5,4.0
# From MPC114598
C/2017 K4 (ATLAS),e,16.6602,298.9206,15.3530,28.70232,0.0064096,0.90724203,11.4918,12/06.0/2022,2000,g 10.0,4.0
# From MPEC 2021-P47
C/2017 K5 (PANSTARRS),h,03/27.3890/2020,82.2521,102.3868,172.0697,1.005206,7.684164,2000,5.0,4.0
# From MPC114599
C/2017 K6 (Jacques),e,57.2183,84.8834,303.8254,1258,0.0000221,0.99841350,0.0000,01/04.0736/2018,2000,g 11.0,4.0
# From MPEC 2022-OB6
C/2017 M4 (ATLAS),h,01/17.9774/2019,105.6396,65.9657,167.6078,1.001258,3.251888,2000,6.0,4.0
# From MPC118841
C/2017 M5 (TOTAS),h,06/04.1932/2018,15.8619,216.2888,92.8693,1.005067,6.005317,2000,6.5,4.0
# From MPC114599
P/2017 P1 (PANSTARRS),e,7.6895,221.3648,122.7154,7.913001,0.0442784,0.31086801,72.0509,12/06.0/2022,2000,g 10.0,4.0
# From MPC114599
C/2017 P2 (PANSTARRS),e,50.0490,165.4646,132.5260,2540,0.0000077,0.99902474,0.0000,12/05.7296/2017,2000,g 10.0,4.0
# From MPC114599
C/2017 S3 (PANSTARRS),h,08/16.6980/2018,99.2009,171.2990,255.8102,1.000092,0.205055,2000,12.9,4.0
# From MPC109591
C/2017 S6 (Catalina),h,02/26.2157/2018,152.8639,131.1303,135.0351,1.000980,1.551988,2000,12.5,4.0
# From MPEC 2022-OB6
P/2017 S8 (PANSTARRS),e,29.8486,191.5190,254.8537,2.777898,0.2128774,0.39077308,17.4137,12/06.0/2022,2000,g 16.0,4.0
# From MPC107050
P/2017 S9 (PANSTARRS),e,14.1404,146.2221,237.5526,3.156895,0.1757170,0.30580683,345.3872,12/06.0/2022,2000,g 17.0,4.0
# From MPC114600
C/2017 T1 (Heinze),e,96.9174,102.5788,97.0370,10644,0.0000009,0.99994494,0.0000,02/20.6134/2018,2000,g 14.5,4.0
# From MPEC 2021-Y10
C/2017 T2 (PANSTARRS),e,57.2601,64.4085,92.9322,1610,0.0000153,0.99899767,0.0000,05/04.8031/2020,2000,g  5.0,4.0
# From MPC114600
C/2017 T3 (ATLAS),e,88.2463,230.2212,246.8020,1231,0.0000228,0.99933126,0.0000,07/19.1684/2018,2000,g 10.0,4.0
# From MPC115882
P/2017 TW13 (Lemmon),e,44.8498,322.2625,119.9121,7.135744,0.0517065,0.71021921,84.1914,12/06.0/2022,2000,g 15.0,2.0
# From MPEC 2022-K19
P/2017 U3 (PANSTARRS),e,15.9184,165.1085,296.2947,4.925105,0.0901739,0.09957402,120.2815,12/06.0/2022,2000,g 11.0,4.0
# From MPEC 2021-P47
C/2017 U4 (PANSTARRS),e,158.2028,245.9121,158.9749,18873,0.0000004,0.99959077,0.0000,09/21.7190/2018,2000,g  7.0,4.0
# From MPC114600
C/2017 U5 (PANSTARRS),e,18.9771,163.0848,262.0028,16.91154,0.0141719,0.74484090,25.6839,12/06.0/2022,2000,g 12.0,4.0
# From MPEC 2022-PB4
C/2017 U7 (PANSTARRS),h,09/15.1774/2019,142.6110,276.2641,326.4176,1.001508,6.427890,2000,8.3,2.0
# From MPC114601
P/2017 W3 (Gibbs),e,18.1678,210.2147,327.8213,7.832277,0.0449647,0.50634771,78.3818,12/06.0/2022,2000,g 10.5,4.0
# From MPEC 2021-R75
C/2017 X1 (PANSTARRS),e,31.3342,251.1536,283.1492,31.02585,0.0057032,0.84965375,9.3305,12/06.0/2022,2000,g 10.0,4.0
# From MPEC 2022-QD9
C/2017 Y2 (PANSTARRS),h,11/05.0790/2020,128.4341,66.0088,147.9352,1.001377,4.632834,2000,15.0,4.0
# From MPC111770
P/2017 Y3 (Leonard),e,27.5630,153.8540,67.5852,9.823226,0.0320127,0.86948017,56.3844,12/06.0/2022,2000,g 16.5,4.0
# From MPEC 2021-P47
C/2018 A3 (ATLAS),e,139.5369,194.2929,86.3505,371.3060,0.0001378,0.99117134,0.0000,01/11.0453/2019,2000,g  8.5,4.0
# From MPC114601
C/2018 A4 (PANSTARRS),e,3.1504,97.5843,355.9577,12.18393,0.0231752,0.80379944,38.5095,12/06.0/2022,2000,g 14.0,4.0
# From MPC109147
P/2018 A5 (PANSTARRS),e,23.6071,87.7935,359.4874,5.628784,0.0738044,0.52330900,140.1516,12/06.0/2022,2000,g 15.0,4.0
# From MPEC 2022-ST7
C/2018 A6 (Gibbs),e,77.0585,340.3820,264.3572,15.05792,0.0168677,0.79958995,20.9714,12/06.0/2022,2000,g  9.0,4.0
# From MPEC 2022-O08
C/2018 B1 (Lemmon),e,162.4179,133.1922,68.3983,4072,0.0000038,0.99874007,0.0000,03/27.4391/2018,2000,g  9.0,4.0
# From MPC114601
P/2018 C1 (Lemmon-Read),e,5.1120,270.3367,235.6971,5.652678,0.0733369,0.53203313,128.0855,12/06.0/2022,2000,g 13.5,4.0
# From MPC114601
C/2018 C2 (Lemmon),h,05/31.3507/2018,34.4633,91.2460,134.0210,1.000013,1.960811,2000,13.0,4.0
# From MPEC 2022-M88
C/2018 DO4 (Lemmon),e,160.4427,251.4354,176.2985,25.35215,0.0077211,0.90482874,9.3194,12/06.0/2022,2000,g 11.0,4.0
# From MPC114602
C/2018 E1 (ATLAS),e,72.5048,146.8400,299.2886,53.85935,0.0024935,0.95000693,4.2213,12/06.0/2022,2000,g 10.5,4.0
# From MPEC 2022-N37
C/2018 E2 (Barros),e,97.6205,67.1515,277.4447,2751,0.0000068,0.99857505,0.0000,12/23.6195/2017,2000,g 10.5,4.0
# From MPC114602
C/2018 EN4 (NEOWISE),e,81.9326,136.1284,35.0265,17.92231,0.0129901,0.91847321,21.4045,12/06.0/2022,2000,g 15.0,4.0
# From MPC114602
C/2018 EF9 (Lemmon),e,84.6210,172.5564,72.6321,456.9415,0.0001009,0.99658265,0.0000,05/21.2964/2018,2000,g 18.0,2.0
# From MPEC 2021-R75
C/2018 F1 (Grauer),e,46.0786,177.2760,71.5913,242.8434,0.0002604,0.98765894,0.0000,12/12.1119/2018,2000,g 11.5,4.0
# From MPEC 2021-W31
C/2018 F4 (PANSTARRS),e,78.0842,26.5156,263.2222,19368,0.0000004,0.99982222,0.0000,12/03.3020/2019,2000,g 11.0,6.0
# From MPEC 2021-Y10
C/2018 F4-A,e,78.0844,26.5158,263.2190,14980,0.0000005,0.99977015,0.0000,12/03.2903/2019,2000,g 11.0,6.0
# From MPEC 2021-W31
C/2018 F4-B,e,78.0851,26.5154,263.2040,25763,0.0000002,0.99986636,0.0000,12/03.2265/2019,2000,g 11.0,6.0
# From MPC114602
P/2018 H2 (PANSTARRS),e,7.4182,67.9117,120.0624,4.383360,0.1073973,0.54221764,191.4897,12/06.0/2022,2000,g 16.6,2.0
# From MPC114602
C/2018 K1 (Weiland),e,164.1884,260.1746,325.2412,30.21010,0.0059358,0.93772429,10.1097,12/06.0/2022,2000,g 14.9,4.0
# From MPEC 2021-R75
C/2018 KJ3 (Lemmon),e,136.6771,91.6491,217.6696,954.6980,0.0000334,0.99620037,0.0000,09/09.9831/2019,2000,g 12.2,2.0
# From MPC114602
P/2018 L1 (PANSTARRS),e,10.5803,268.6167,18.0381,3.653596,0.1411313,0.48188827,209.6117,12/06.0/2022,2000,g 15.0,4.0
# From MPEC 2021-P47
C/2018 L2 (ATLAS),e,67.2669,243.0034,56.3244,258.3636,0.0002373,0.99335860,0.0000,12/02.2729/2018,2000,g 10.0,4.0
# From MPC114603
P/2018 L4 (PANSTARRS),e,26.6194,145.1706,140.6204,4.945194,0.0896250,0.65914742,142.4237,12/06.0/2022,2000,g 17.5,4.0
# From MPC119996
P/2018 L5 (Leonard),e,2.2087,219.0455,93.9563,3.628878,0.1425757,0.36429260,238.8672,12/06.0/2022,2000,g 14.5,4.0
# From MPC117070
C/2018 M1 (Catalina),e,37.2881,339.4160,14.2371,21.49333,0.0098912,0.93928265,15.9162,12/06.0/2022,2000,g 15.5,4.0
# From MPEC 2022-M21
C/2018 N1 (NEOWISE),e,159.4146,292.5286,354.7288,506.7516,0.0000864,0.99741592,0.0000,08/02.7696/2018,2000,g 15.5,4.0
# From MPEC 2022-L66
C/2018 N2 (ASASSN),h,11/11.3060/2019,77.5527,25.2052,24.4752,1.000851,3.127348,2000,6.0,4.0
# From MPC114603
C/2018 O1 (ATLAS),e,154.0039,87.7732,162.7035,28.08576,0.0066218,0.94450605,10.3072,12/06.0/2022,2000,g 17.0,4.0
# From MPEC 2022-M21
P/2018 P3 (PANSTARRS),e,8.9144,59.1592,305.9781,3.004361,0.1892675,0.41711905,287.0010,12/06.0/2022,2000,g 14.5,4.0
# From MPC114603
P/2018 P4 (PANSTARRS),e,23.1091,353.0629,8.4169,6.683771,0.0570390,0.45061276,84.8684,12/06.0/2022,2000,g 12.0,4.0
# From MPEC 2021-P47
C/2018 P5 (PANSTARRS),e,7.2472,216.2008,131.9507,12.84258,0.0214154,0.64291951,29.4870,12/06.0/2022,2000,g 11.0,4.0
# From MPC118841
C/2018 R3 (Lemmon),e,69.7171,324.6001,112.7454,1562,0.0000160,0.99917806,0.0000,06/07.7281/2019,2000,g  9.5,4.0
# From MPEC 2022-M21
C/2018 R4 (Fuls),e,11.6701,298.5300,345.3224,346.5267,0.0001528,0.99502782,0.0000,03/02.6863/2018,2000,g 14.0,4.0
# From MPC114603
C/2018 R5 (Lemmon),e,103.7487,171.1161,178.1907,22.88641,0.0090020,0.84132451,12.8344,12/06.0/2022,2000,g 11.5,4.0
# From MPEC 2022-QC6
C/2018 S2 (TESS),e,64.1579,85.1023,290.8004,14.35873,0.0181147,0.61879376,26.9971,12/06.0/2022,2000,g  7.5,4.0
